H1 CPF 01  gfz 2022 11 24 13  8282 tandemx   
H2 1003001  6202 36605    2022 11 24 12 59 42 2022 11 29 00 00 42   120 1 1  0 0 0
H9
10 0 59911  48942.000000  0    1345266.955   4685109.740  -4875408.324
10 0 59911  49062.000000  0    1713464.561   5190620.588  -4200584.673
10 0 59911  49182.000000  0    2059853.226   5599568.685  -3452159.414
10 0 59911  49302.000000  0    2376618.530   5905184.141  -2643182.350
10 0 59911  49422.000000  0    2656350.525   6102622.841  -1787797.564
10 0 59911  49542.000000  0    2892212.589   6189054.423   -900996.791
10 0 59911  49662.000000  0    3078101.657   6163710.482      1647.082
10 0 59911  49782.000000  0    3208795.432   6027890.859    904259.720
10 0 59911  49902.000000  0    3280083.409   5784928.828   1790951.644
10 0 59911  50022.000000  0    3288878.019   5440116.163   2646106.337
10 0 59911  50142.000000  0    3233302.677   5000588.524   3454663.791
10 0 59911  50262.000000  0    3112755.617   4475173.834   4202392.395
10 0 59911  50382.000000  0    2927946.767   3874209.649   4876144.747
10 0 59911  50502.000000  0    2680903.912   3209330.473   5464090.987
10 0 59911  50622.000000  0    2374953.503   2493234.726   5955922.111
10 0 59911  50742.000000  0    2014676.797   1739437.394   6343026.289
10 0 59911  50862.000000  0    1605839.444    962009.936   6618635.042
10 0 59911  50982.000000  0    1155296.577    175314.900   6777934.280
10 0 59911  51102.000000  0     670876.675   -606258.272   6818142.991
10 0 59911  51222.000000  0     161245.246  -1368556.362   6738560.352
10 0 59911  51342.000000  0    -364250.483  -2097918.763   6540576.893
10 0 59911  51462.000000  0    -895753.008  -2781422.470   6227651.053
10 0 59911  51582.000000  0   -1423077.828  -3407111.472   5805250.684
10 0 59911  51702.000000  0   -1935905.874  -3964207.106   5280763.443
10 0 59911  51822.000000  0   -2423985.611  -4443298.330   4663375.903
10 0 59911  51942.000000  0   -2877340.504  -4836507.962   3963919.044
10 0 59911  52062.000000  0   -3286475.666  -5137629.727   3194681.084
10 0 59911  52182.000000  0   -3642577.709  -5342232.236   2369191.401
10 0 59911  52302.000000  0   -3937704.481  -5447728.534   1501981.018
10 0 59911  52422.000000  0   -4164961.154  -5453409.325    608322.219
10 0 59911  52542.000000  0   -4318657.196  -5360438.005   -296047.237
10 0 59911  52662.000000  0   -4394440.476  -5171808.160  -1195209.796
10 0 59911  52782.000000  0   -4389404.203  -4892263.366  -2073358.011
10 0 59911  52902.000000  0   -4302163.750  -4528181.108  -2915080.670
10 0 59911  53022.000000  0   -4132901.930  -4087425.137  -3705638.289
10 0 59911  53142.000000  0   -3883382.229  -3579171.248  -4431222.371
10 0 59911  53262.000000  0   -3556930.868  -3013711.274  -5079194.226
10 0 59911  53382.000000  0   -3158388.231  -2402239.547  -5638299.282
10 0 59911  53502.000000  0   -2694031.716  -1756627.871  -6098853.364
10 0 59911  53622.000000  0   -2171472.144  -1089193.531  -6452900.362
10 0 59911  53742.000000  0   -1599524.808   -412464.549  -6694338.266
10 0 59911  53862.000000  0    -988059.533    261052.350  -6819012.205
10 0 59911  53982.000000  0    -347833.001    919096.959  -6824777.619
10 0 59911  54102.000000  0     309696.427   1549873.077  -6711533.158
10 0 59911  54222.000000  0     972567.481   2142253.971  -6481223.279
10 0 59911  54342.000000  0    1628529.316   2685975.440  -6137810.184
10 0 59911  54462.000000  0    2265263.316   3171812.264  -5687212.617
10 0 59911  54582.000000  0    2870611.137   3591735.085  -5137213.220
10 0 59911  54702.000000  0    3432804.840   3939045.746  -4497335.909
10 0 59911  54822.000000  0    3940696.887   4208489.851  -3778692.438
10 0 59911  54942.000000  0    4383984.737   4396342.536  -2993798.627
10 0 59911  55062.000000  0    4753424.580   4500464.938  -2156361.767
10 0 59911  55182.000000  0    5041028.650   4520329.560  -1281044.081
10 0 59911  55302.000000  0    5240242.385   4457013.702   -383204.343
10 0 59911  55422.000000  0    5346093.911   4313160.259    521376.411
10 0 59911  55542.000000  0    5355314.011   4092907.552   1416778.564
10 0 59911  55662.000000  0    5266424.080   3801788.095   2287232.448
10 0 59911  55782.000000  0    5079787.235   3446598.541   3117405.710
10 0 59911  55902.000000  0    4797620.280   3035245.049   3892681.470
10 0 59911  56022.000000  0    4423968.158   2576567.570   4599421.162
10 0 59911  56142.000000  0    3964642.958   2080148.250   5225205.604
10 0 59911  56262.000000  0    3427126.874   1556110.348   5759054.475
10 0 59911  56382.000000  0    2820442.031   1014909.040   6191615.221
10 0 59911  56502.000000  0    2154992.688    467120.748   6515319.821
10 0 59911  56622.000000  0    1442383.167    -76762.583   6724510.383
10 0 59911  56742.000000  0     695213.187   -606533.420   6815534.460
10 0 59911  56862.000000  0     -73146.932  -1112460.411   6786804.857
10 0 59911  56982.000000  0    -848795.715  -1585466.543   6638824.764
10 0 59911  57102.000000  0   -1617551.521  -2017292.111   6374178.369
10 0 59911  57222.000000  0   -2365209.768  -2400638.390   5997487.370
10 0 59911  57342.000000  0   -3077803.986  -2729291.586   5515337.564
10 0 59911  57462.000000  0   -3741870.793  -2998227.088   4936171.566
10 0 59911  57582.000000  0   -4344709.303  -3203688.706   4270144.869
10 0 59911  57702.000000  0   -4874629.117  -3343241.804   3528951.416
10 0 59911  57822.000000  0   -5321183.033  -3415799.515   2725621.034
10 0 59911  57942.000000  0   -5675380.464  -3421622.294   1874291.103
10 0 59911  58062.000000  0   -5929875.297  -3362289.851    989953.710
10 0 59911  58182.000000  0   -6079121.973  -3240644.479     88184.902
10 0 59911  58302.000000  0   -6119496.803  -3060708.377   -815137.469
10 0 59911  58422.000000  0   -6049381.096  -2827576.788  -1704123.268
10 0 59911  58542.000000  0   -5869201.688  -2547288.704  -2563158.787
10 0 59911  58662.000000  0   -5581430.421  -2226680.281  -3377186.492
10 0 59911  58782.000000  0   -5190543.373  -1873224.715  -4131972.033
10 0 59911  58902.000000  0   -4702941.170  -1494862.518  -4814352.243
10 0 59911  59022.000000  0   -4126833.489  -1099826.655  -5412460.816
10 0 59911  59142.000000  0   -3472089.843   -696466.126  -5915927.179
10 0 59911  59262.000000  0   -2750061.832   -293072.672  -6316045.571
10 0 59911  59382.000000  0   -1973381.147    102285.882  -6605913.844
10 0 59911  59502.000000  0   -1155736.330    481922.072  -6780540.957
10 0 59911  59622.000000  0    -311634.039    838673.188  -6836923.090
10 0 59911  59742.000000  0     543852.587   1166032.838  -6774088.982
10 0 59911  59862.000000  0    1395345.320   1458265.494  -6593116.248
10 0 59911  59982.000000  0    2227431.894   1710505.566  -6297116.674
10 0 59911  60102.000000  0    3024939.883   1918837.914  -5891188.203
10 0 59911  60222.000000  0    3773209.762   2080358.202  -5382335.083
10 0 59911  60342.000000  0    4458362.852   2193213.051  -4779358.665
10 0 59911  60462.000000  0    5067562.468   2256619.618  -4092716.795
10 0 59911  60582.000000  0    5589260.603   2270862.930  -3334351.853
10 0 59911  60702.000000  0    6013425.147   2237271.112  -2517491.390
10 0 59911  60822.000000  0    6331744.493   2158169.048  -1656422.205
10 0 59911  60942.000000  0    6537800.955   2036810.562   -766240.064
10 0 59911  61062.000000  0    6627209.839   1877290.217    137418.197
10 0 59911  61182.000000  0    6597717.806   1684436.415   1038656.815
10 0 59911  61302.000000  0    6449259.384   1463689.717   1921606.888
10 0 59911  61422.000000  0    6183971.745   1220968.203   2770715.660
10 0 59911  61542.000000  0    5806162.281    962523.070   3571029.036
10 0 59911  61662.000000  0    5322233.151    694789.395   4308461.922
10 0 59911  61782.000000  0    4740563.525    424235.160   4970048.871
10 0 59911  61902.000000  0    4071355.898    157213.425   5544172.953
10 0 59911  62022.000000  0    3326446.342   -100180.976   6020768.225
10 0 59911  62142.000000  0    2519085.966   -342244.255   6391490.163
10 0 59911  62262.000000  0    1663699.953   -563784.868   6649855.877
10 0 59911  62382.000000  0     775626.066   -760231.371   6791352.807
10 0 59911  62502.000000  0    -129163.443   -927724.640   6813512.479
10 0 59911  62622.000000  0   -1034349.118  -1063192.544   6715949.672
10 0 59911  62742.000000  0   -1923557.579  -1164406.370   6500367.893
10 0 59911  62862.000000  0   -2780655.890  -1230017.138   6170530.720
10 0 59911  62982.000000  0   -3590043.304  -1259571.847   5732201.788
10 0 59911  63102.000000  0   -4336938.995  -1253510.572   5193051.431
10 0 59911  63222.000000  0   -5007658.051  -1213144.111   4562528.274
10 0 59911  63342.000000  0   -5589870.008  -1140611.247   3851697.845
10 0 59911  63462.000000  0   -6072833.626  -1038816.864   3073050.698
10 0 59911  63582.000000  0   -6447603.849   -911352.359   2240284.803
10 0 59911  63702.000000  0   -6707208.787   -762400.160   1368063.386
10 0 59911  63822.000000  0   -6846787.979   -596624.349    471750.146
10 0 59911  63942.000000  0   -6863687.684   -419050.145   -432869.419
10 0 59911  64062.000000  0   -6757512.340   -234935.176  -1329875.053
10 0 59911  64182.000000  0   -6530129.334    -49635.904  -2203500.574
10 0 59911  64302.000000  0   -6185630.183    131526.481  -3038416.900
10 0 59911  64422.000000  0   -5730247.758    303398.642  -3820007.376
10 0 59911  64542.000000  0   -5172230.053    461122.334  -4534625.236
10 0 59911  64662.000000  0   -4521677.451    600252.557  -5169829.084
10 0 59911  64782.000000  0   -3790347.349    716864.833  -5714592.534
10 0 59911  64902.000000  0   -2991431.829    807648.230  -6159486.102
10 0 59911  65022.000000  0   -2139313.356    869982.762  -6496828.151
10 0 59911  65142.000000  0   -1249304.371    902000.907  -6720806.467
10 0 59911  65262.000000  0    -337373.262    902631.915  -6827567.533
10 0 59911  65382.000000  0     580135.899    871627.801  -6815274.235
99
